OBJECT_NAME,OBJECT_ID,EPOCH,MEAN_MOTION,ECCENTRICITY,INCLINATION,RA_OF_ASC_NODE,ARG_OF_PERICENTER,MEAN_ANOMALY,EPHEMERIS_TYPE,CLASSIFICATION_TYPE,NORAD_CAT_ID,ELEMENT_SET_NO,REV_AT_EPOCH,BSTAR,MEAN_MOTION_DOT,MEAN_MOTION_DDOT
SHARJAHSAT-1,2023-001CZ,2026-07-12T14:53:39.737184,15.50050366,.0005062,97.3161,262.7545,29.7701,330.3838,0,U,55104,999,19643,.23355272E-3,.13027E-3,0
HORUS 1,2023-025A,2026-07-12T15:19:43.859712,15.23521646,.00028253,97.3459,267.6979,117.0734,243.0791,0,U,55690,999,18792,.13758369E-3,.3216E-4,0
HORUS 2,2023-032A,2026-07-12T14:35:51.518688,15.23327642,.0000915,97.3531,268.4979,131.9445,228.1871,0,U,55844,999,18535,.13503436E-3,.3136E-4,0
GLOBAL-19,2023-041B,2026-07-12T14:44:16.751328,15.38637500,.00092769,42.0024,53.5425,201.6551,158.3898,0,U,55982,999,18584,.23588171E-3,.8959E-4,0
ION SCV-010,2023-054Q,2026-07-12T14:20:01.996512,15.26409979,.00145103,97.3752,82.7737,112.3534,247.9245,0,U,56192,999,18007,.11042948E-3,.2809E-4,0
TELEOS-2,2023-057C,2026-07-12T03:36:25.989120,14.96411808,.00009113,9.9893,22.4141,271.3262,88.6848,0,U,56310,999,17654,.2285542E-3,.3351E-4,0
SNIPE 4,2023-072B,2026-07-12T15:19:06.782016,15.43323843,.00045485,97.5232,40.4662,216.0465,144.0476,0,U,56744,999,17403,.31468959E-3,.13942E-3,0
SNIPE 2,2023-072C,2026-07-12T14:30:29.094624,15.48130110,.00030174,97.5221,43.6574,246.5337,113.5596,0,U,56745,999,17417,.35028465E-3,.18313E-3,0
2023-072G,2023-072G,2026-07-12T14:34:21.753408,15.52022532,.00021406,97.4878,42.4942,215.1654,144.9457,0,U,56749,999,17440,.34972784E-3,.20983E-3,0
GEISAT PRECURSOR,2023-084C,2026-07-12T13:55:26.139360,15.34986498,.00042872,97.6246,335.3792,241.7003,118.3808,0,U,56934,999,17142,.13527332E-3,.4506E-4,0
BLACKJACK ACES-3,2023-084U,2026-07-12T09:45:55.614816,15.18709020,.00007133,97.6237,328.7970,269.2188,90.8964,0,U,56950,999,17099,.14789425E-3,.2998E-4,0
BLACKJACK ACES-2,2023-084Z,2026-07-12T09:54:30.629664,15.18713957,.00014062,97.6232,328.8869,140.2494,219.8843,0,U,56955,999,17100,.18041182E-3,.3674E-4,0
BLACKJACK ACES-1,2023-084AA,2026-07-12T11:11:30.957792,15.18762245,.00017983,97.6222,328.7124,121.7651,238.3758,0,U,56956,999,12073,.20395799E-3,.4168E-4,0
ION SCV-011,2023-084AB,2026-07-12T14:09:23.882400,15.29080826,.00060761,98.1375,23.2274,316.2039,43.8717,0,U,56957,999,16969,.11074924E-3,.3039E-4,0
GHOST-3,2023-084AC,2026-07-12T08:51:09.428832,15.48719481,.00066344,97.6229,343.3107,193.9993,166.1074,0,U,56958,999,17191,.21598785E-3,.11485E-3,0
AFR-1,2023-084AJ,2026-07-12T13:33:20.894688,15.28762465,.00091239,97.6301,330.8745,245.4165,114.6124,0,U,56964,999,17110,.98721848E-4,.2683E-4,0
METEOR-M2 3,2023-091A,2026-07-12T14:29:16.618848,14.24048781,.00051449,98.6069,248.0602,96.1188,264.0577,0,U,57166,999,15813,.11360816E-4,-.17E-6,0
UMKA 1 (RS40S),2023-091G,2026-07-12T13:18:33.602112,15.21103175,.0013287,97.5042,252.1565,38.2240,321.9935,0,U,57172,999,16786,.15408785E-3,.3363E-4,0
2023-091H,2023-091H,2026-07-12T13:50:34.814112,15.29180313,.00098592,97.5041,256.9812,33.9047,326.2821,0,U,57173,999,16818,.2514161E-3,.7052E-4,0
2023-091J,2023-091J,2026-07-12T13:37:12.730944,15.14100618,.00145663,97.5045,246.3024,64.5827,295.6910,0,U,57174,999,16747,.12865378E-3,.2281E-4,0
CUBEBEL 2 (EU11S),2023-091K,2026-07-12T13:38:26.548512,15.29783042,.00098279,97.5044,257.0205,35.3200,324.8689,0,U,57175,999,16818,.27303461E-3,.781E-4,0
SITRO-AIS 5 (KATYS),2023-091L,2026-07-12T13:56:21.555456,15.30028033,.0010926,97.5054,257.7293,21.6054,338.5645,0,U,57176,999,16822,.26131921E-3,.753E-4,0
ZORKIY-2M 1,2023-091M,2026-07-12T14:31:09.166080,15.21228881,.00136585,97.5083,252.4925,35.0114,325.2017,0,U,57177,999,16786,.173506E-3,.3811E-4,0
CUBESX-HSE 3 (RS42S),2023-091N,2026-07-12T14:08:57.310944,15.31843845,.00099362,97.5086,259.5064,11.3998,348.7467,0,U,57178,999,16831,.26917914E-3,.8209E-4,0
MONITOR-3 (RS58S),2023-091Q,2026-07-12T12:57:51.829344,15.28340128,.0011292,97.5077,257.1785,19.0437,341.1223,0,U,57180,999,16816,.23094521E-3,.6308E-4,0
MONITOR-4 (RS57S),2023-091S,2026-07-12T13:59:56.948928,15.28427053,.00112789,97.5071,257.1945,19.2011,340.9651,0,U,57182,999,16817,.23485325E-3,.6434E-4,0
MONITOR-2 (RS39S),2023-091U,2026-07-12T14:35:40.457760,15.19139983,.0011636,97.5063,251.7280,32.4587,327.7361,0,U,57184,999,16781,.1285005E-3,.2634E-4,0
SVYATOBOR 1 (RS60S),2023-091X,2026-07-12T14:51:09.356256,15.27036593,.00090061,97.5083,257.5814,13.7048,346.4433,0,U,57187,999,16819,.19911697E-3,.5212E-4,0
HORS 1,2023-091Y,2026-07-12T14:27:39.363552,15.27153949,.0008476,97.5060,257.3243,14.1531,345.9943,0,U,57188,999,16819,.21200719E-3,.5574E-4,0
VIZARD-METEO (RS38S),2023-091Z,2026-07-12T14:42:16.172352,15.36821729,.00058846,97.5087,263.6196,350.4022,9.7109,0,U,57189,999,16859,.29384265E-3,.10499E-3,0
