SHARJAHSAT-1            
1 55104U 23001CZ  26193.62059881  .00013027  00000+0  23355-3 0  9994
2 55104  97.3161 262.7545 0005062  29.7701 330.3838 15.50050366196436
HORUS 1                 
1 55690U 23025A   26193.63870208  .00003216  00000+0  13758-3 0  9990
2 55690  97.3459 267.6979 0002825 117.0734 243.0791 15.23521646187928
HORUS 2                 
1 55844U 23032A   26193.60823517  .00003136  00000+0  13503-3 0  9996
2 55844  97.3531 268.4979 0000915 131.9445 228.1871 15.23327642185359
GLOBAL-19               
1 55982U 23041B   26193.61408277  .00008959  00000+0  23588-3 0  9994
2 55982  42.0024  53.5425 0009276 201.6551 158.3898 15.38637500185847
ION SCV-010             
1 56192U 23054Q   26193.59724533  .00002809  00000+0  11043-3 0  9996
2 56192  97.3752  82.7737 0014510 112.3534 247.9245 15.26409979180073
TELEOS-2                
1 56310U 23057C   26193.15030080  .00003351  00000+0  22855-3 0  9996
2 56310   9.9893  22.4141 0000911 271.3262  88.6848 14.96411808176540
SNIPE 4                 
1 56744U 23072B   26193.63827294  .00013942  00000+0  31469-3 0  9996
2 56744  97.5232  40.4662 0004548 216.0465 144.0476 15.43323843174030
SNIPE 2                 
1 56745U 23072C   26193.60450341  .00018313  00000+0  35028-3 0  9991
2 56745  97.5221  43.6574 0003017 246.5337 113.5596 15.48130110174179
2023-072G               
1 56749U 23072G   26193.60719622  .00020983  00000+0  34973-3 0  9999
2 56749  97.4878  42.4942 0002140 215.1654 144.9457 15.52022532174409
GEISAT PRECURSOR        
1 56934U 23084C   26193.58016365  .00004506  00000+0  13527-3 0  9994
2 56934  97.6246 335.3792 0004287 241.7003 118.3808 15.34986498171424
BLACKJACK ACES-3        
1 56950U 23084U   26193.40689369  .00002998  00000+0  14789-3 0  9997
2 56950  97.6237 328.7970 0000713 269.2188  90.8964 15.18709020170999
BLACKJACK ACES-2        
1 56955U 23084Z   26193.41285451  .00003674  00000+0  18041-3 0  9994
2 56955  97.6232 328.8869 0001406 140.2494 219.8843 15.18713957171001
BLACKJACK ACES-1        
1 56956U 23084AA  26193.46633053  .00004168  00000+0  20396-3 0  9990
2 56956  97.6222 328.7124 0001798 121.7651 238.3758 15.18762245120736
ION SCV-011             
1 56957U 23084AB  26193.58985975  .00003039  00000+0  11075-3 0  9997
2 56957  98.1375  23.2274 0006076 316.2039  43.8717 15.29080826169692
GHOST-3                 
1 56958U 23084AC  26193.36885913  .00011485  00000+0  21599-3 0  9991
2 56958  97.6229 343.3107 0006634 193.9993 166.1074 15.48719481171915
AFR-1                   
1 56964U 23084AJ  26193.56482517  .00002683  00000+0  98722-4 0  9996
2 56964  97.6301 330.8745 0009123 245.4165 114.6124 15.28762465171105
METEOR-M2 3             
1 57166U 23091A   26193.60366457 -.00000017  00000+0  11361-4 0  9992
2 57166  98.6069 248.0602 0005144  96.1188 264.0577 14.24048781158132
UMKA 1 (RS40S)          
1 57172U 23091G   26193.55455558  .00003363  00000+0  15409-3 0  9996
2 57172  97.5042 252.1565 0013287  38.2240 321.9935 15.21103175167863
2023-091H               
1 57173U 23091H   26193.57679183  .00007052  00000+0  25142-3 0  9995
2 57173  97.5041 256.9812 0009859  33.9047 326.2821 15.29180313168182
2023-091J               
1 57174U 23091J   26193.56750846  .00002281  00000+0  12865-3 0  9998
2 57174  97.5045 246.3024 0014566  64.5827 295.6910 15.14100618167475
CUBEBEL 2 (EU11S)       
1 57175U 23091K   26193.56836283  .00007810  00000+0  27303-3 0  9995
2 57175  97.5044 257.0205 0009827  35.3200 324.8689 15.29783042168181
SITRO-AIS 5 (KATYS)     
1 57176U 23091L   26193.58080504  .00007530  00000+0  26132-3 0  9993
2 57176  97.5054 257.7293 0010926  21.6054 338.5645 15.30028033168227
ZORKIY-2M 1             
1 57177U 23091M   26193.60496720  .00003811  00000+0  17351-3 0  9999
2 57177  97.5083 252.4925 0013658  35.0114 325.2017 15.21228881167863
CUBESX-HSE 3 (RS42S)    
1 57178U 23091N   26193.58955221  .00008209  00000+0  26918-3 0  9998
2 57178  97.5086 259.5064 0009936  11.3998 348.7467 15.31843845168314
MONITOR-3 (RS58S)       
1 57180U 23091Q   26193.54018321  .00006308  00000+0  23095-3 0  9999
2 57180  97.5077 257.1785 0011292  19.0437 341.1223 15.28340128168164
MONITOR-4 (RS57S)       
1 57182U 23091S   26193.58329802  .00006434  00000+0  23485-3 0  9997
2 57182  97.5071 257.1945 0011278  19.2011 340.9651 15.28427053168178
MONITOR-2 (RS39S)       
1 57184U 23091U   26193.60810715  .00002634  00000+0  12850-3 0  9992
2 57184  97.5063 251.7280 0011636  32.4587 327.7361 15.19139983167819
SVYATOBOR 1 (RS60S)     
1 57187U 23091X   26193.61885829  .00005212  00000+0  19912-3 0  9995
2 57187  97.5083 257.5814 0009006  13.7048 346.4433 15.27036593168195
HORS 1                  
1 57188U 23091Y   26193.60253893  .00005574  00000+0  21201-3 0  9990
2 57188  97.5060 257.3243 0008476  14.1531 345.9943 15.27153949168192
VIZARD-METEO (RS38S)    
1 57189U 23091Z   26193.61268718  .00010499  00000+0  29384-3 0  9996
2 57189  97.5087 263.6196 0005884 350.4022   9.7109 15.36821729168591
